GLOBALSTAR M001         
1 25162U 98008A   25016.45183925 -.00000068  00000+0  22200-3 0  9995
2 25162  52.0044  54.8608 0001169 281.8840 216.5676 12.38205328225020
GLOBALSTAR M004         
1 25163U 98008B   25016.74941858 -.00000083  00000+0  11456-3 0  9993
2 25163  51.9985 156.1482 0002155 327.7500 181.3969 12.63385226242643
GLOBALSTAR M002         
1 25164U 98008C   25016.79022258 -.00000089  00000+0 -25306-3 0  9999
2 25164  52.0003 259.8087 0000457 190.5072 169.5738 11.61506512166548
GLOBALSTAR M003         
1 25165U 98008D   25016.54302219 -.00000012  00000+0  82592-3 0  9996
2 25165  51.9960 228.5057 0008028 354.1998  43.2261 12.12065881214837
GLOBALSTAR M014         
1 25306U 98023A   25016.58481163 -.00000094  00000+0 -30236-3 0  9999
2 25306  51.9805 186.7335 0002172  89.3822 357.8349 11.65478054173497
GLOBALSTAR M006         
1 25307U 98023B   25016.56548797 -.00000060  00000+0  31921-3 0  9999
2 25307  51.9906 233.5905 0003240 172.7147 201.3150 11.58171676199266
GLOBALSTAR M015         
1 25308U 98023C   25016.82924410  .00000005  00000+0  17812-2 0  9999
2 25308  51.9850 324.4673 0012455 165.1749 235.9973 11.48857248177053
GLOBALSTAR M008         
1 25309U 98023D   25016.14883078 -.00000054  00000+0  32780-3 0  9996
2 25309  51.9970 278.8529 0001848 204.3332 302.9793 12.36060522219047
